[{"OBJECT_NAME":"STARLINK-32084","OBJECT_ID":"2024-136U","EPOCH":"2026-03-09T09:43:29.768160","MEAN_MOTION":15.30190369,"ECCENTRICITY":0.00012665,"INCLINATION":53.161,"RA_OF_ASC_NODE":76.7943,"ARG_OF_PERICENTER":92.6485,"MEAN_ANOMALY":267.466,"EPHEMERIS_TYPE":0,"CLASSIFICATION_TYPE":"U","NORAD_CAT_ID":60347,"ELEMENT_SET_NO":999,"REV_AT_EPOCH":8962,"BSTAR":4.3394e-6,"MEAN_MOTION_DOT":-2.31e-6,"MEAN_MOTION_DDOT":0},{"OBJECT_NAME":"FENGYUN 1C DEB","OBJECT_ID":"1999-025BQF","EPOCH":"2026-03-08T19:58:36.101856","MEAN_MOTION":15.15826086,"ECCENTRICITY":0.00798835,"INCLINATION":98.9812,"RA_OF_ASC_NODE":89.4872,"ARG_OF_PERICENTER":83.7388,"MEAN_ANOMALY":277.2932,"EPHEMERIS_TYPE":0,"CLASSIFICATION_TYPE":"U","NORAD_CAT_ID":31327,"ELEMENT_SET_NO":999,"REV_AT_EPOCH":1401,"BSTAR":0.0018254058,"MEAN_MOTION_DOT":0.00037915,"MEAN_MOTION_DDOT":0}]
